STARLINK-1982_new
1 17580C 21009AJ  21326.10849603  .00008572  00000-0  57453-3 0  3264
2 17580  53.0523 223.2395 0001805  62.9839  80.5994 15.06377387    14
STARLINK-1982_old
1 27580C 21009AJ  21325.16129285  .00002244  00000-0  15033-3 0  3253
2 27580  53.0528 227.4916 0001878  62.7978 341.2123 15.06399272    14
